ONEWEB-0311             
1 49097U 21075Y   26101.19600242 -.00000077  00000+0 -23040-3 0  9995
2 49097  87.9193  19.1653 0001425  86.5496 273.5798 13.17650435224805
ONEWEB-0312             
1 49098U 21075Z   26101.21120095  .00000074  00000+0  15676-3 0  9993
2 49098  87.9182  19.1774 0001518  71.3086 288.8210 13.17651066224784
ONEWEB-0313             
1 49099U 21075AA  26101.14018533  .00000102  00000+0  23065-3 0  9992
2 49099  87.9188  19.1982 0001687  79.3692 280.7629 13.17651133224768
ONEWEB-0314             
1 49100U 21075AB  26101.18250451 -.00000247  00000+0 -66832-3 0  9997
2 49100  87.9195  19.1549 0001491  71.3552 288.7742 13.17649604224740
ONEWEB-0315             
1 49101U 21075AC  26101.11979465  .00000104  00000+0  25345-3 0  9998
2 49101  87.9016   3.9644 0001483  88.4967 271.6332 13.12440827226378
ONEWEB-0316             
1 49102U 21075AD  26101.08403708 -.00000053  00000+0 -16692-3 0  9997
2 49102  87.9228 348.8021 0001719  82.4351 277.6976 13.18684452228368
ONEWEB-0317             
1 49103U 21075AE  26101.12318000 -.00000090  00000+0 -28467-3 0  9997
2 49103  87.9015   3.9865 0002358  65.8801 294.2574 13.12440581226390
ONEWEB-0318             
1 49104U 21075AF  26101.15661300  .00000038  00000+0  63676-4 0  9997
2 49104  87.9232 348.7833 0001556  86.8530 273.2780 13.18684440228330
ONEWEB-0319             
1 49105U 21075AG  26101.19768847 -.00000119  00000+0 -33993-3 0  9996
2 49105  87.9182  19.1741 0001510  94.6837 265.4467 13.17647939224780
ONEWEB-0323             
1 49106U 21075AH  26101.18079604  .00000503  00000+0  13631-2 0  9993
2 49106  87.9014   3.9566 0001292  91.7269 268.4008 13.12441976225766
ONEWEB-0329             
1 49107U 21075AJ  26101.20613785  .00000081  00000+0  17555-3 0  9992
2 49107  87.9183  19.1730 0001624  76.3246 283.8067 13.17651186224765
ONEWEB-0330             
1 49108U 21075AK  26101.00210184  .00000021  00000+0  21223-4 0  9999
2 49108  87.9190  19.2324 0001711  70.9511 289.1806 13.17649077224773
ONEWEB-0292             
1 49186U 21083A   26101.05309289 -.00000190  00000+0 -55453-3 0  9994
2 49186  87.8988 333.6157 0001617  87.6069 272.5245 13.13469073222119
ONEWEB-0303             
1 49187U 21083B   26100.92568537 -.00000061  00000+0 -18629-3 0  9994
2 49187  87.9228 348.8314 0001586  83.4259 276.7054 13.18684338221112
ONEWEB-0306             
1 49188U 21083C   26101.06755880  .00000045  00000+0  80691-4 0  9999
2 49188  87.9227 348.7873 0001932  75.6596 284.4751 13.18686074221178
ONEWEB-0307             
1 49189U 21083D   26101.04715473 -.00000207  00000+0 -60254-3 0  9996
2 49189  87.8988 333.6060 0001592  83.0580 277.0730 13.13468991222112
ONEWEB-0320             
1 49190U 21083E   26101.08764209 -.00020256  00000+0 -51225-1 0  9995
2 49190  87.9223 348.8086 0001899  79.4936 280.6410 13.19082135221131
