[{"OBJECT_NAME":"ONEWEB-0311","OBJECT_ID":"2021-075Y","EPOCH":"2026-04-11T04:42:14.609088","MEAN_MOTION":13.17650435,"ECCENTRICITY":0.0001425,"INCLINATION":87.9193,"RA_OF_ASC_NODE":19.1653,"ARG_OF_PERICENTER":86.5496,"MEAN_ANOMALY":273.5798,"EPHEMERIS_TYPE":0,"CLASSIFICATION_TYPE":"U","NORAD_CAT_ID":49097,"ELEMENT_SET_NO":999,"REV_AT_EPOCH":22480,"BSTAR":-0.0002304,"MEAN_MOTION_DOT":-7.7e-07,"MEAN_MOTION_DDOT":0.0},{"OBJECT_NAME":"ONEWEB-0312","OBJECT_ID":"2021-075Z","EPOCH":"2026-04-11T05:04:07.762080","MEAN_MOTION":13.17651066,"ECCENTRICITY":0.0001518,"INCLINATION":87.9182,"RA_OF_ASC_NODE":19.1774,"ARG_OF_PERICENTER":71.3086,"MEAN_ANOMALY":288.821,"EPHEMERIS_TYPE":0,"CLASSIFICATION_TYPE":"U","NORAD_CAT_ID":49098,"ELEMENT_SET_NO":999,"REV_AT_EPOCH":22478,"BSTAR":0.00015676,"MEAN_MOTION_DOT":7.4e-07,"MEAN_MOTION_DDOT":0.0},{"OBJECT_NAME":"ONEWEB-0313","OBJECT_ID":"2021-075AA","EPOCH":"2026-04-11T03:21:52.012512","MEAN_MOTION":13.17651133,"ECCENTRICITY":0.0001687,"INCLINATION":87.9188,"RA_OF_ASC_NODE":19.1982,"ARG_OF_PERICENTER":79.3692,"MEAN_ANOMALY":280.7629,"EPHEMERIS_TYPE":0,"CLASSIFICATION_TYPE":"U","NORAD_CAT_ID":49099,"ELEMENT_SET_NO":999,"REV_AT_EPOCH":22476,"BSTAR":0.00023065,"MEAN_MOTION_DOT":1.02e-06,"MEAN_MOTION_DDOT":0.0},{"OBJECT_NAME":"ONEWEB-0314","OBJECT_ID":"2021-075AB","EPOCH":"2026-04-11T04:22:48.389664","MEAN_MOTION":13.17649604,"ECCENTRICITY":0.0001491,"INCLINATION":87.9195,"RA_OF_ASC_NODE":19.1549,"ARG_OF_PERICENTER":71.3552,"MEAN_ANOMALY":288.7742,"EPHEMERIS_TYPE":0,"CLASSIFICATION_TYPE":"U","NORAD_CAT_ID":49100,"ELEMENT_SET_NO":999,"REV_AT_EPOCH":22474,"BSTAR":-0.00066832,"MEAN_MOTION_DOT":-2.47e-06,"MEAN_MOTION_DDOT":0.0},{"OBJECT_NAME":"ONEWEB-0315","OBJECT_ID":"2021-075AC","EPOCH":"2026-04-11T02:52:30.257760","MEAN_MOTION":13.12440827,"ECCENTRICITY":0.0001483,"INCLINATION":87.9016,"RA_OF_ASC_NODE":3.9644,"ARG_OF_PERICENTER":88.4967,"MEAN_ANOMALY":271.6332,"EPHEMERIS_TYPE":0,"CLASSIFICATION_TYPE":"U","NORAD_CAT_ID":49101,"ELEMENT_SET_NO":999,"REV_AT_EPOCH":22637,"BSTAR":0.00025345,"MEAN_MOTION_DOT":1.04e-06,"MEAN_MOTION_DDOT":0.0},{"OBJECT_NAME":"ONEWEB-0316","OBJECT_ID":"2021-075AD","EPOCH":"2026-04-11T02:01:00.803712","MEAN_MOTION":13.18684452,"ECCENTRICITY":0.0001719,"INCLINATION":87.9228,"RA_OF_ASC_NODE":348.8021,"ARG_OF_PERICENTER":82.4351,"MEAN_ANOMALY":277.6976,"EPHEMERIS_TYPE":0,"CLASSIFICATION_TYPE":"U","NORAD_CAT_ID":49102,"ELEMENT_SET_NO":999,"REV_AT_EPOCH":22836,"BSTAR":-0.00016692,"MEAN_MOTION_DOT":-5.3e-07,"MEAN_MOTION_DDOT":0.0},{"OBJECT_NAME":"ONEWEB-0317","OBJECT_ID":"2021-075AE","EPOCH":"2026-04-11T02:57:22.752000","MEAN_MOTION":13.12440581,"ECCENTRICITY":0.0002358,"INCLINATION":87.9015,"RA_OF_ASC_NODE":3.9865,"ARG_OF_PERICENTER":65.8801,"MEAN_ANOMALY":294.2574,"EPHEMERIS_TYPE":0,"CLASSIFICATION_TYPE":"U","NORAD_CAT_ID":49103,"ELEMENT_SET_NO":999,"REV_AT_EPOCH":22639,"BSTAR":-0.00028467,"MEAN_MOTION_DOT":-9e-07,"MEAN_MOTION_DDOT":0.0},{"OBJECT_NAME":"ONEWEB-0318","OBJECT_ID":"2021-075AF","EPOCH":"2026-04-11T03:45:31.363200","MEAN_MOTION":13.1868444,"ECCENTRICITY":0.0001556,"INCLINATION":87.9232,"RA_OF_ASC_NODE":348.7833,"ARG_OF_PERICENTER":86.853,"MEAN_ANOMALY":273.278,"EPHEMERIS_TYPE":0,"CLASSIFICATION_TYPE":"U","NORAD_CAT_ID":49104,"ELEMENT_SET_NO":999,"REV_AT_EPOCH":22833,"BSTAR":6.3676e-05,"MEAN_MOTION_DOT":3.8e-07,"MEAN_MOTION_DDOT":0.0},{"OBJECT_NAME":"ONEWEB-0319","OBJECT_ID":"2021-075AG","EPOCH":"2026-04-11T04:44:40.283808","MEAN_MOTION":13.17647939,"ECCENTRICITY":0.000151,"INCLINATION":87.9182,"RA_OF_ASC_NODE":19.1741,"ARG_OF_PERICENTER":94.6837,"MEAN_ANOMALY":265.4467,"EPHEMERIS_TYPE":0,"CLASSIFICATION_TYPE":"U","NORAD_CAT_ID":49105,"ELEMENT_SET_NO":999,"REV_AT_EPOCH":22478,"BSTAR":-0.00033993,"MEAN_MOTION_DOT":-1.19e-06,"MEAN_MOTION_DDOT":0.0},{"OBJECT_NAME":"ONEWEB-0323","OBJECT_ID":"2021-075AH","EPOCH":"2026-04-11T04:20:20.777856","MEAN_MOTION":13.12441976,"ECCENTRICITY":0.0001292,"INCLINATION":87.9014,"RA_OF_ASC_NODE":3.9566,"ARG_OF_PERICENTER":91.7269,"MEAN_ANOMALY":268.4008,"EPHEMERIS_TYPE":0,"CLASSIFICATION_TYPE":"U","NORAD_CAT_ID":49106,"ELEMENT_SET_NO":999,"REV_AT_EPOCH":22576,"BSTAR":0.0013631,"MEAN_MOTION_DOT":5.03e-06,"MEAN_MOTION_DDOT":0.0},{"OBJECT_NAME":"ONEWEB-0329","OBJECT_ID":"2021-075AJ","EPOCH":"2026-04-11T04:56:50.310240","MEAN_MOTION":13.17651186,"ECCENTRICITY":0.0001624,"INCLINATION":87.9183,"RA_OF_ASC_NODE":19.173,"ARG_OF_PERICENTER":76.3246,"MEAN_ANOMALY":283.8067,"EPHEMERIS_TYPE":0,"CLASSIFICATION_TYPE":"U","NORAD_CAT_ID":49107,"ELEMENT_SET_NO":999,"REV_AT_EPOCH":22476,"BSTAR":0.00017555,"MEAN_MOTION_DOT":8.1e-07,"MEAN_MOTION_DDOT":0.0},{"OBJECT_NAME":"ONEWEB-0330","OBJECT_ID":"2021-075AK","EPOCH":"2026-04-11T00:03:01.598976","MEAN_MOTION":13.17649077,"ECCENTRICITY":0.0001711,"INCLINATION":87.919,"RA_OF_ASC_NODE":19.2324,"ARG_OF_PERICENTER":70.9511,"MEAN_ANOMALY":289.1806,"EPHEMERIS_TYPE":0,"CLASSIFICATION_TYPE":"U","NORAD_CAT_ID":49108,"ELEMENT_SET_NO":999,"REV_AT_EPOCH":22477,"BSTAR":2.1223e-05,"MEAN_MOTION_DOT":2.1e-07,"MEAN_MOTION_DDOT":0.0},{"OBJECT_NAME":"ONEWEB-0292","OBJECT_ID":"2021-083A","EPOCH":"2026-04-11T01:16:27.225696","MEAN_MOTION":13.13469073,"ECCENTRICITY":0.0001617,"INCLINATION":87.8988,"RA_OF_ASC_NODE":333.6157,"ARG_OF_PERICENTER":87.6069,"MEAN_ANOMALY":272.5245,"EPHEMERIS_TYPE":0,"CLASSIFICATION_TYPE":"U","NORAD_CAT_ID":49186,"ELEMENT_SET_NO":999,"REV_AT_EPOCH":22211,"BSTAR":-0.00055453,"MEAN_MOTION_DOT":-1.9e-06,"MEAN_MOTION_DDOT":0.0},{"OBJECT_NAME":"ONEWEB-0303","OBJECT_ID":"2021-083B","EPOCH":"2026-04-10T22:12:59.215968","MEAN_MOTION":13.18684338,"ECCENTRICITY":0.0001586,"INCLINATION":87.9228,"RA_OF_ASC_NODE":348.8314,"ARG_OF_PERICENTER":83.4259,"MEAN_ANOMALY":276.7054,"EPHEMERIS_TYPE":0,"CLASSIFICATION_TYPE":"U","NORAD_CAT_ID":49187,"ELEMENT_SET_NO":999,"REV_AT_EPOCH":22111,"BSTAR":-0.00018629,"MEAN_MOTION_DOT":-6.1e-07,"MEAN_MOTION_DDOT":0.0},{"OBJECT_NAME":"ONEWEB-0306","OBJECT_ID":"2021-083C","EPOCH":"2026-04-11T01:37:17.080320","MEAN_MOTION":13.18686074,"ECCENTRICITY":0.0001932,"INCLINATION":87.9227,"RA_OF_ASC_NODE":348.7873,"ARG_OF_PERICENTER":75.6596,"MEAN_ANOMALY":284.4751,"EPHEMERIS_TYPE":0,"CLASSIFICATION_TYPE":"U","NORAD_CAT_ID":49188,"ELEMENT_SET_NO":999,"REV_AT_EPOCH":22117,"BSTAR":8.0691e-05,"MEAN_MOTION_DOT":4.5e-07,"MEAN_MOTION_DDOT":0.0},{"OBJECT_NAME":"ONEWEB-0307","OBJECT_ID":"2021-083D","EPOCH":"2026-04-11T01:07:54.168672","MEAN_MOTION":13.13468991,"ECCENTRICITY":0.0001592,"INCLINATION":87.8988,"RA_OF_ASC_NODE":333.606,"ARG_OF_PERICENTER":83.058,"MEAN_ANOMALY":277.073,"EPHEMERIS_TYPE":0,"CLASSIFICATION_TYPE":"U","NORAD_CAT_ID":49189,"ELEMENT_SET_NO":999,"REV_AT_EPOCH":22211,"BSTAR":-0.0006025399999999999,"MEAN_MOTION_DOT":-2.07e-06,"MEAN_MOTION_DDOT":0.0},{"OBJECT_NAME":"ONEWEB-0320","OBJECT_ID":"2021-083E","EPOCH":"2026-04-11T02:06:12.276576","MEAN_MOTION":13.19082135,"ECCENTRICITY":0.0001899,"INCLINATION":87.9223,"RA_OF_ASC_NODE":348.8086,"ARG_OF_PERICENTER":79.4936,"MEAN_ANOMALY":280.641,"EPHEMERIS_TYPE":0,"CLASSIFICATION_TYPE":"U","NORAD_CAT_ID":49190,"ELEMENT_SET_NO":999,"REV_AT_EPOCH":22113,"BSTAR":-0.051225,"MEAN_MOTION_DOT":-0.00020256,"MEAN_MOTION_DDOT":0.0}]